1 38771U 12049A   15288.15342946  .00000041  00000-0  38617-4 0  9994,2 38771  98.6838 346.2452 0001104 141.8329 299.3142 14.21499009159464
1 38771U 12049A   15288.93497834 +.00000047 +00000-0 +41516-4 0  9995,2 38771 098.6836 347.0140 0001139 141.3955 336.9889 14.21499147159585
1 38771U 12049A   15289.20691058  .00000054  00000-0  44490-4 0  9992,2 38771  98.6836 347.2815 0001146 141.2851 287.8988 14.21499235159614
1 38771U 12049A   15289.90758909 +.00000054 +00000-0 +44726-4 0  9990,2 38771 098.6834 347.9707 0001171 140.7752 272.0344 14.21499360159724
1 38771U 12049A   15290.48479262  .00000049  00000-0  42428-4 0  9998,2 38771  98.6834 348.5385 0001189 140.3687 344.5529 14.21499458159790
1 38771U 12049A   15290.89984097 +.00000055 +00000-0 +44963-4 0  9993,2 38771 098.6833 348.9468 0001202 140.0533 307.6368 14.21499578159860
1 38771U 12049A   15291.82008876  .00000061  00000-0  47951-4 0  9996,2 38771  98.6832 349.8519 0001237 139.0442 335.2620 14.21499843159987
1 38771U 12049A   15291.96352116 +.00000067 +00000-0 +50718-4 0  9991,2 38771 098.6832 349.9930 0001243 138.9215 348.9713 14.21499908160010
1 38771U 12049A   15292.86618168  .00000061  00000-0  47954-4 0  9995,2 38771  98.6831 350.8809 0001277 137.9820 286.5772 14.21500096160139
1 38771U 12049A   15292.94843928 +.00000062 +00000-0 +48189-4 0  9990,2 38771 098.6830 350.9618 0001283 137.9894 347.2772 14.21500111160150
1 38771U 12049A   15293.93224630 +.00000070 +00000-0 +51793-4 0  9997,2 38771 098.6829 351.9295 0001315 137.0093 339.9494 14.21500357160294
1 38771U 12049A   15294.20453589  .00000077  00000-0  55007-4 0  9994,2 38771  98.6829 352.1973 0001323 136.8781 292.7088 14.21500464160328
1 38771U 12049A   15294.85043428 +.00000073 +00000-0 +53262-4 0  9999,2 38771 098.6828 352.8326 0001347 136.2423 356.7998 14.21500589160429
1 38771U 12049A   15295.76075419  .00000066  00000-0  50297-4 0  9992,2 38771  98.6827 353.7280 0001374 135.4998 333.3848 14.21500794160541
1 38771U 12049A   15295.89746598 +.00000076 +00000-0 +54683-4 0  9993,2 38771 098.6827 353.8625 0001375 135.2045 312.8945 14.21500865160579
1 38771U 12049A   15296.81741808  .00000081  00000-0  57002-4 0  9999,2 38771  98.6826 354.7672 0001408 134.3444 338.8622 14.21501119160696
1 38771U 12049A   15296.96095113 +.00000092 +00000-0 +61821-4 0  9992,2 38771 098.6825 354.9084 0001413 134.1889 353.1196 14.21501201160723
1 38771U 12049A   15297.94580009 +.00000092 +00000-0 +62087-4 0  9999,2 38771 098.6824 355.8770 0001448 132.8621 351.4709 14.21501454160867
1 38771U 12049A   15298.13880958  .00000090  00000-0  61257-4 0  9993,2 38771  98.6823 356.0669 0001456 132.6915 258.7916 14.21501507160889
1 38771U 12049A   15298.92958426 +.00000091 +00000-0 +61394-4 0  9999,2 38771 098.6822 356.8446 0001481 131.8067 344.1059 14.21501686161007
1 38771U 12049A   15299.20161749  .00000090  00000-0  60947-4 0  9997,2 38771  98.6821 357.1121 0001490 131.6155 295.6155 14.21501772161032
1 38771U 12049A   15299.90937456 +.00000089 +00000-0 +60610-4 0  9995,2 38771 098.6820 357.8081 0001512 130.8444 316.2218 14.21501907161142
1 38771U 12049A   15300.55160516  .00000082  00000-0  57516-4 0  9998,2 38771  98.6819 358.4397 0001530 130.2454   1.5203 14.21502064161224
1 38771U 12049A   15300.89502164 +.00000082 +00000-0 +57252-4 0  9991,2 38771 098.6818 358.7775 0001539 129.9005 318.2749 14.21502151161288
1 38771U 12049A   15301.81468773  .00000069  00000-0  51277-4 0  9997,2 38771  98.6817 359.6819 0001568 128.8506 342.9738 14.21502352161401
1 38771U 12049A   15301.95830183 +.00000072 +00000-0 +53018-4 0  9999,2 38771 098.6816 359.8232 0001573 128.6718 357.6696 14.21502392161433
1 38771U 12049A   15302.94293088 +.00000078 +00000-0 +55742-4 0  9998,2 38771 098.6815 000.7915 0001595 127.4812 354.7646 14.21502657161570
1 38771U 12049A   15303.14074704  .00000080  00000-0  56468-4 0  9992,2 38771  98.6814   0.9860 0001597 127.3263 286.6542 14.21502724161596
1 38771U 12049A   15303.92681778 +.00000080 +00000-0 +56282-4 0  9997,2 38771 098.6813 001.7591 0001618 126.4179 347.9375 14.21502908161718
1 38771U 12049A   15304.19914644  .00000078  00000-0  55769-4 0  9994,2 38771  98.6813   2.0269 0001622 126.1039 301.0820 14.21502988161748
1 38771U 12049A   15304.90693194 +.00000059 +00000-0 +47008-4 0  9993,2 38771 098.6812 002.7229 0001643 125.2324 321.9372 14.21503062161859
1 38771U 12049A   15305.46539652  .00000079  00000-0  55953-4 0  9993,2 38771  98.6811   3.2721 0001659 124.6076 298.8410 14.21503297161928
1 38771U 12049A   15305.90543796 +.00000078 +00000-0 +55685-4 0  9997,2 38771 098.6810 003.7048 0001668 124.0387 030.0116 14.21503413161999
1 38771U 12049A   15306.81219410  .00000075  00000-0  54095-4 0  9992,2 38771  98.6809   4.5965 0001698 123.0446 348.6305 14.21503626162111
1 38771U 12049A   15306.95580009 +.00000059 +00000-0 +46765-4 0  9999,2 38771 098.6809 004.7377 0001701 122.8836 003.2675 14.21503557162145
1 38771U 12049A   15307.86354815  .00000065  00000-0  49564-4 0  9991,2 38771  98.6808   5.6303 0001714 121.6817 327.1680 14.21503791162260
1 38771U 12049A   15308.91887005 +.00000071 +00000-0 +52197-4 0  9993,2 38771 098.6807 006.6681 0001737 120.4007 325.9183 14.21504025162425
1 38771U 12049A   15309.19671931  .00000066  00000-0  50273-4 0  9990,2 38771  98.6807   6.9413 0001744 120.0335 307.3522 14.21504083162457
1 38771U 12049A   15309.90449882 +.00000056 +00000-0 +45619-4 0  9994,2 38771 098.6806 007.6372 0001763 119.2273 328.1142 14.21504170162568
1 38771U 12049A   15310.46833105  .00000067  00000-0  50587-4 0  9994,2 38771  98.6805   8.1916 0001777 118.5131 332.5626 14.21504342162632
1 38771U 12049A   15310.89014670 +.00000060 +00000-0 +47516-4 0  9990,2 38771 098.6805 008.6064 0001787 117.9235 330.5391 14.21504404162704
1 38771U 12049A   15311.53230523  .00000076  00000-0  54639-4 0  9990,2 38771  98.6804   9.2379 0001799 117.4485  15.3510 14.21504642162787
1 38771U 12049A   15311.95330009 +.00000070 +00000-0 +51802-4 0  9999,2 38771 098.6803 009.6519 0001809 116.8963 009.0927 14.21504711162859
1 38771U 12049A   15312.86111939  .00000079  00000-0  56082-4 0  9993,2 38771  98.6802  10.5445 0001821 115.8022 333.2535 14.21504936162975
1 38771U 12049A   15312.93746822 +.00000078 +00000-0 +55348-4 0  9999,2 38771 098.6802 010.6195 0001820 115.7148 003.8291 14.21504949162990
1 38771U 12049A   15313.92194654  .00000087  00000-0  59699-4 0  9992,2 38771  98.6800  11.5875 0001830 114.4708   0.2154 14.21505240163122
1 38771U 12049A   15313.92194654 +.00000087 +00000-0 +59699-4 0  9992,2 38771 098.6800 011.5875 0001830 114.4708 000.2154 14.21505240163133
1 38771U 12049A   15314.91931616 +.00000101 +00000-0 +65919-4 0  9998,2 38771 098.6798 012.5682 0001845 113.2189 062.5436 14.21505593163272
1 38771U 12049A   15315.17878940  .00000106  00000-0  68221-4 0  9991,2 38771  98.6798  12.8233 0001848 112.9023 309.9440 14.21505704163304
1 38771U 12049A   15315.88771922 +.00000092 +00000-0 +62139-4 0  9997,2 38771 098.6796 013.5203 0001859 111.9452 336.7442 14.21505837163413
1 38771U 12049A   15316.45144032  .00000093  00000-0  62456-4 0  9990,2 38771  98.6795  14.0746 0001866 111.1497 340.7088 14.21505995163482
1 38771U 12049A   15316.95081196 +.00000076 +00000-0 +54598-4 0  9995,2 38771 098.6794 014.5656 0001870 110.5067 015.4038 14.21506043163562
1 38771U 12049A   15317.79933384  .00000081  00000-0  56956-4 0  9999,2 38771  98.6792  15.3998 0001879 109.4486  36.2545 14.21506285163673
1 38771U 12049A   15317.92835032 +.00000086 +00000-0 +59138-4 0  9995,2 38771 098.6792 015.5267 0001879 109.2715 336.2908 14.21506345163704
1 38771U 12049A   15318.84434234  .00000086  00000-0  59184-4 0  9997,2 38771  98.6790  16.4272 0001889 108.1401 342.2941 14.21506605163825
1 38771U 12049A   15319.89963373 +.00000073 +00000-0 +53169-4 0  9997,2 38771 098.6789 017.4647 0001894 106.6678 341.0903 14.21506844163982
1 38771U 12049A   15320.17594590  .00000070  00000-0  51832-4 0  9993,2 38771  98.6788  17.7364 0001894 106.3718 314.5946 14.21506928164012
1 38771U 12049A   15320.96328910 +.00000080 +00000-0 +56252-4 0  9993,2 38771 098.6787 018.5104 0001913 105.4142 022.4474 14.21507243164130
1 38771U 12049A   15321.44892722  .00000084  00000-0  58303-4 0  9997,2 38771  98.6787  18.9878 0001921 104.8536 346.8219 14.21507397164197
1 38771U 12049A   15321.73389491 +.00000077 +00000-0 +54979-4 0  9990,2 38771 098.6787 019.2680 0001920 104.5099 004.6431 14.21507444164246
1 38771U 12049A   15322.85624543  .00000078  00000-0  55754-4 0  9997,2 38771  98.6785  20.3714 0001917 103.0500 346.4067 14.21507727164394
1 38771U 12049A   15322.93201568 +.00000079 +00000-0 +56085-4 0  9993,2 38771 098.6785 020.4459 0001918 102.9747 014.0119 14.21507743164410
1 38771U 12049A   15323.85029659 +.00000077 +00000-0 +55203-4 0  9993,2 38771 098.6784 021.3486 0001913 101.7959 031.7736 14.21507973164546
1 38771U 12049A   15324.11721899  .00000071  00000-0  52212-4 0  9999,2 38771  98.6784  21.6110 0001913 101.5576 317.1968 14.21508012164572
1 38771U 12049A   15324.90147817 +.00000066 +00000-0 +50065-4 0  9996,2 38771 098.6783 022.3820 0001925 100.6936 009.1853 14.21508220164695
1 38771U 12049A   15325.17625444  .00000068  00000-0  51099-4 0  9993,2 38771  98.6782  22.6521 0001922 100.3757 334.8573 14.21508312164723
1 38771U 12049A   15325.96070692 +.00000068 +00000-0 +50762-4 0  9995,2 38771 098.6781 023.4232 0001924 099.2840 028.0627 14.21508512164848
1 38771U 12049A   15326.52026338  .00000086  00000-0  59300-4 0  9993,2 38771  98.6781  23.9733 0001923  98.5151  10.7060 14.21508734164918
1 38771U 12049A   15326.94570808 +.00000077 +00000-0 +54913-4 0  9990,2 38771 098.6780 024.3915 0001924 097.9796 027.1960 14.21508790164983
1 38771U 12049A   15327.92904203 +.00000081 +00000-0 +56772-4 0  9999,2 38771 098.6778 025.3581 0001926 096.7966 017.6816 14.21509027165123
1 38771U 12049A   15328.91313381 +.00000077 +00000-0 +54920-4 0  9998,2 38771 098.6776 026.3254 0001925 095.6396 012.0180 14.21509251165260
